[{"OBJECT_NAME":"GAOFEN-9 03","OBJECT_ID":"2020-039A","EPOCH":"2026-03-09T21:55:15.121344","MEAN_MOTION":15.30529116,"ECCENTRICITY":0.0013094,"INCLINATION":97.5219,"RA_OF_ASC_NODE":201.2158,"ARG_OF_PERICENTER":77.4533,"MEAN_ANOMALY":282.8172,"EPHEMERIS_TYPE":0,"CLASSIFICATION_TYPE":"U","NORAD_CAT_ID":45794,"ELEMENT_SET_NO":999,"REV_AT_EPOCH":31856,"BSTAR":0.00039258132,"MEAN_MOTION_DOT":0.00011544,"MEAN_MOTION_DDOT":0},{"OBJECT_NAME":"STARLINK-32130","OBJECT_ID":"2024-150C","EPOCH":"2026-03-09T22:07:52.765536","MEAN_MOTION":15.30187155,"ECCENTRICITY":9.705e-5,"INCLINATION":53.1606,"RA_OF_ASC_NODE":306.1857,"ARG_OF_PERICENTER":73.7092,"MEAN_ANOMALY":286.4015,"EPHEMERIS_TYPE":0,"CLASSIFICATION_TYPE":"U","NORAD_CAT_ID":60585,"ELEMENT_SET_NO":999,"REV_AT_EPOCH":8799,"BSTAR":3.235052e-5,"MEAN_MOTION_DOT":5.99e-6,"MEAN_MOTION_DDOT":0}]
